IRIDIUM 166             
1 43570U 18061B   25017.77544413  .00000426  00000+0  14516-3 0  9996
2 43570  86.3955 272.1021 0002239  94.1352 266.0100 14.34217290339522
IRIDIUM 158             
1 43571U 18061C   25017.74373115  .00000010  00000+0 -34281-5 0  9996
2 43571  86.3954 272.1251 0001699  89.5263 270.6127 14.34217824339483
IRIDIUM 165             
1 43572U 18061D   25017.76910354  .00000384  00000+0  13017-3 0  9996
2 43572  86.3956 272.1510 0002232  83.3301 276.8148 14.34219940339519
IRIDIUM 155             
1 43573U 18061E   25017.73104779  .00000487  00000+0  16671-3 0  9993
2 43573  86.3951 272.0617 0001938  94.5731 265.5686 14.34222641339474
IRIDIUM 154             
1 43574U 18061F   25017.78178691  .00000075  00000+0  19673-4 0  9992
2 43574  86.3953 272.1484 0002126  85.4765 274.6674 14.34218354339537
IRIDIUM 163             
1 43575U 18061G   25017.76275944  .00000068  00000+0  17111-4 0  9997
2 43575  86.3953 272.0881 0001945  84.7255 275.4163 14.34217826339504
IRIDIUM 156             
1 43576U 18061H   25017.80715643  .00000235  00000+0  76935-4 0  9993
2 43576  86.3952 272.0763 0002074  95.9304 264.2128 14.34219314339507
IRIDIUM 164             
1 43577U 18061J   25017.78812925  .00000697  00000+0  24185-3 0  9993
2 43577  86.3954 272.1162 0002300  81.4565 278.6892 14.34221508339544
